[{"OBJECT_NAME":"STARLINK-5551","OBJECT_ID":"2023-058AU","EPOCH":"2026-03-09T22:49:54.485184","MEAN_MOTION":15.01260319,"ECCENTRICITY":0.00020168,"INCLINATION":97.6043,"RA_OF_ASC_NODE":70.5298,"ARG_OF_PERICENTER":85.7867,"MEAN_ANOMALY":274.3588,"EPHEMERIS_TYPE":0,"CLASSIFICATION_TYPE":"U","NORAD_CAT_ID":56359,"ELEMENT_SET_NO":999,"REV_AT_EPOCH":15817,"BSTAR":-1.2085875e-5,"MEAN_MOTION_DOT":-2.14e-6,"MEAN_MOTION_DDOT":0},{"OBJECT_NAME":"COSMOS 2251 DEB","OBJECT_ID":"1993-036AHG","EPOCH":"2026-03-08T10:46:53.014080","MEAN_MOTION":14.81929018,"ECCENTRICITY":0.00877235,"INCLINATION":73.9479,"RA_OF_ASC_NODE":235.9974,"ARG_OF_PERICENTER":61.9882,"MEAN_ANOMALY":299.0134,"EPHEMERIS_TYPE":0,"CLASSIFICATION_TYPE":"U","NORAD_CAT_ID":35043,"ELEMENT_SET_NO":999,"REV_AT_EPOCH":68686,"BSTAR":0.0057795156,"MEAN_MOTION_DOT":0.00049252,"MEAN_MOTION_DDOT":0}]
